
ONEWEB-0310             
1 49096U 21075X   25019.24437343  .00000103  00000+0  25142-3 0  9990
2 49096  87.8868  93.0225 0001971 104.8087 255.3260 13.12444003168776
ONEWEB-0311             
1 49097U 21075Y   25018.78010682  .00000022  00000+0  22208-4 0  9993
2 49097  87.9095 108.3489 0001819  90.7746 269.3594 13.17648245165881
ONEWEB-0312             
1 49098U 21075Z   25019.25089887  .00000098  00000+0  21995-3 0  9994
2 49098  87.9094 108.2865 0002169  97.5918 262.5460 13.17647760166905
ONEWEB-0313             
1 49099U 21075AA  25018.80020800 -.00000052  00000+0 -16709-3 0  9994
2 49099  87.9093 108.3915 0001989  98.9596 261.1761 13.17646401165851
ONEWEB-0314             
1 49100U 21075AB  25018.76659792  .00000059  00000+0  11843-3 0  9999
2 49100  87.9089 108.3355 0002088  97.1526 262.9843 13.17647232165822
ONEWEB-0315             
1 49101U 21075AC  25018.76099112 -.00000386  00000+0 -11081-2 0  9992
2 49101  87.8859  93.0823 0001634  90.4270 269.7045 13.12442355167695
ONEWEB-0316             
1 49102U 21075AD  25018.94446255  .00000032  00000+0  49001-4 0  9998
2 49102  87.9084  77.7676 0001856  93.0770 267.0574 13.18684108169434
ONEWEB-0317             
1 49103U 21075AE  25018.75450167 -.00000226  00000+0 -66333-3 0  9998
2 49103  87.8860  93.0969 0001892 119.5965 240.5352 13.12442079167714
ONEWEB-0318             
1 49104U 21075AF  25018.86542330  .00000116  00000+0  26189-3 0  9996
2 49104  87.9080  77.7712 0001843  90.5110 269.6234 13.18684462169387
ONEWEB-0319             
1 49105U 21075AG  25019.23739982  .00000127  00000+0  29302-3 0  9992
2 49105  87.9095 108.2830 0001858  88.6277 271.5068 13.17647674166919
ONEWEB-0323             
1 49106U 21075AH  25018.66853181  .00000075  00000+0  17369-3 0  9999
2 49106  87.8860  93.1008 0001968  80.1447 279.9904 13.12439231167067
ONEWEB-0329             
1 49107U 21075AJ  25019.24583928  .00000079  00000+0  17040-3 0  9994
2 49107  87.9095 108.2858 0001899  98.2269 261.9078 13.17647952166894
ONEWEB-0330             
1 49108U 21075AK  25019.24754399  .00001136  00000+0  28913-2 0  9992
2 49108  87.9102 108.2873 0001934 105.4223 254.7123 13.17643227166939
RSW-01                  
1 49112U 21076A   25019.21452201  .00000092  00000+0  13411-3 0  9990
2 49112  86.4111 341.4884 0017243  65.1664 295.1271 13.42807313166908
PAYLOAD B               
1 49113U 21076B   25019.18605118  .00000421  00000+0  23134-3 0  9993
2 49113  86.4039 288.8104 0020513  22.1656 338.0408 14.09215972175036
RSW-02                  
1 49114U 21076C   25019.21035127  .00000088  00000+0  12792-3 0  9992
2 49114  86.4111 341.4780 0020839  61.9849 298.3400 13.42831072166907
TJS-7                   
1 49115U 21077A   25018.66031280 -.00000114  00000+0  00000+0 0  9994
2 49115   0.0313  90.4674 0001665 146.1771  19.8626  1.00270607  4407
GAOFEN-5 02             
1 49122U 21079A   25019.21244318  .00000756  00000+0  17546-3 0  9992
2 49122  98.1583  96.4692 0003019  88.3740 271.7805 14.57732087179206
CHINASAT 9B             
1 49125U 21080A   25018.62868830 -.00000304  00000+0  00000+0 0  9995
2 49125   0.0130  81.1804 0002480 195.7221 169.0851  1.00274156 12481
STARLINK-3096           
1 49131U 21082B   25018.97970029  .00000609  00000+0  58836-4 0  9998
2 49131  69.9991 220.0735 0002655 271.0584  89.0271 14.98330968184840
STARLINK-3090           
1 49132U 21082C   25019.08464394  .00000696  00000+0  66131-4 0  9998
2 49132  69.9983 259.8399 0002785 270.2291  89.8549 14.98331423183873
STARLINK-3077           
1 49133U 21082D   25019.07613037  .00002095  00000+0  18336-3 0  9996
2 49133  69.9982 259.8385 0002897 268.6084  91.4743 14.98317538183879
STARLINK-3078           
1 49134U 21082E   25018.93844220  .00000614  00000+0  59248-4 0  9994
2 49134  69.9986 260.1889 0002533 270.4134  89.6735 14.98325629185054
STARLINK-3073           
1 49135U 21082F   25018.90876961 -.00000530  00000+0 -36640-4 0  9999
2 49135  69.9992 220.2434 0002776 269.5983  90.4858 14.98324688184841
STARLINK-3084           
1 49136U 21082G   25019.03834438  .00000779  00000+0  73086-4 0  9996
2 49136  69.9992 239.9279 0002682 269.9731  90.1121 14.98332269184379
STARLINK-3055           
1 49137U 21082H   25019.03417211  .00001070  00000+0  97423-4 0  9999
2 49137  69.9992 239.9418 0002959 270.2466  89.8354 14.98333323184366
STARLINK-3058           
1 49138U 21082J   25018.93426872  .00000158  00000+0  21044-4 0  9993
2 49138  69.9983 260.2070 0002627 267.9393  92.1465 14.98329056183853
STARLINK-3057           
1 49139U 21082K   25018.96718173 -.00000387  00000+0 -24601-4 0  9993
2 49139  69.9990 220.1044 0002904 269.5508  90.5318 14.98331668184843
STARLINK-3093           
1 49141U 21082M   25018.93009929 -.00000371  00000+0 -23270-4 0  9999
2 49141  69.9980 260.2196 0002469 255.5689 104.5196 14.98325467185053
STARLINK-3042           
1 49142U 21082N   25018.95026187  .00003997  00000+0  33948-3 0  9994
2 49142  69.9989 220.1302 0002134 276.2402  83.8514 14.98688487184842
STARLINK-3109           
1 49143U 21082P   25019.03000666  .00000802  00000+0  75002-4 0  9999
2 49143  69.9989 239.9560 0002986 269.3787  90.7029 14.98334189184352
STARLINK-3100           
1 49144U 21082Q   25018.92174951  .00000079  00000+0  14455-4 0  9997
2 49144  69.9984 260.2197 0002817 270.1327  89.9509 14.98329055183857
STARLINK-3119           
1 49145U 21082R   25018.93797059  .00001926  00000+0  16915-3 0  9993
2 49145  69.9995 220.1729 0002970 272.9935  87.0884 14.98332776184839
STARLINK-3116           
1 49146U 21082S   25019.02579943  .00003707  00000+0  31810-3 0  9995
2 49146  69.9992 239.9701 0002472 268.8438  91.2438 14.98359020185524
STARLINK-3071           
1 49147U 21082T   25018.95049312  .00000296  00000+0  32599-4 0  9995
2 49147  69.9995 220.1595 0002973 270.6974  89.3844 14.98329306184840
STARLINK-3048           
1 49148U 21082U   25018.95072381  .00000635  00000+0  61042-4 0  9990
2 49148  69.9986 240.1399 0002901 269.8626  90.2200 14.98329290184344
STARLINK-3053           
1 49149U 21082V   25018.83452697  .00006058  00000+0  25406-3 0  9998
2 49149  69.9990 257.9692 0002938 268.4031  91.6805 15.24018203185095
STARLINK-3104           
1 49150U 21082W   25019.04692311  .00000205  00000+0  24945-4 0  9999
2 49150  69.9985 259.9119 0003644 269.5344  90.5397 14.98328370185072
STARLINK-3102           
1 49151U 21082X   25018.92962825  .00000191  00000+0  23826-4 0  9997
2 49151  69.9998 220.2001 0002864 272.5896  87.4936 14.98330711186030
STARLINK-3081           
1 49152U 21082Y   25018.97135195 -.00000013  00000+0  67168-5 0  9997
2 49152  69.9986 220.0915 0002869 270.9918  89.0913 14.98328042185971
STARLINK-3072           
1 49153U 21082Z   25018.92132033 -.00004461  00000+0 -36667-3 0  9991
2 49153  69.9993 220.2284 0002777 268.4318  91.6523 14.98292914186048
STARLINK-3068           
1 49154U 21082AA  25019.01331102  .00000202  00000+0  24743-4 0  9991
2 49154  69.9989 239.9844 0002857 265.5239  94.5593 14.98329721185430
STARLINK-3060           
1 49155U 21082AB  25018.91711207  .00000714  00000+0  67633-4 0  9991
2 49155  69.9977 220.2395 0002858 271.5242  88.5590 14.98330616185912
STARLINK-3085           
1 49156U 21082AC  25018.96300908 -.00000076  00000+0  13876-5 0  9992
2 49156  69.9988 220.1180 0002833 269.4501  90.6334 14.98330688185923
STARLINK-3051           
1 49157U 21082AD  25018.94237653  .00001324  00000+0  11875-3 0  9998
2 49157  69.9989 240.1676 0002774 267.6611  92.4230 14.98320184185445
STARLINK-3083           
1 49158U 21082AE  25018.94675554  .00050151  00000+0  20863-2 0  9993
2 49158  69.9873 212.4720 0002677 234.8661 125.2260 15.23506368186137
STARLINK-3056           
1 49159U 21082AF  25018.90922824 -.00000788  00000+0 -58255-4 0  9996
2 49159  69.9985 260.2619 0002684 267.6366  92.4486 14.98322442184946
STARLINK-3095           
1 49160U 21082AG  25018.89671347  .00000421  00000+0  43054-4 0  9990
2 49160  69.9985 260.2751 0002747 272.2307  87.8537 14.98329967184913
STARLINK-3080           
1 49161U 21082AH  25018.90088677 -.00000072  00000+0  17414-5 0  9996
2 49161  69.9984 260.2624 0002807 271.4335  88.6503 14.98328302184926
STARLINK-3088           
1 49163U 21082AK  25018.93403627 -.00000139  00000+0 -38867-5 0  9997
2 49163  69.9990 240.1954 0002658 271.1511  88.9344 14.98327246185502
STARLINK-3106           
1 49164U 21082AL  25019.05920907  .00000115  00000+0  17404-4 0  9992
2 49164  69.9989 239.8874 0002781 269.2881  90.7960 14.98330777185533
STARLINK-3052           
1 49165U 21082AM  25018.89254311  .00000572  00000+0  55767-4 0  9994
2 49165  69.9983 260.3168 0002764 270.0728  90.0115 14.98331027185044
STARLINK-3089           
1 49166U 21082AN  25018.92986120  .00000679  00000+0  64697-4 0  9999
2 49166  69.9989 240.2100 0002876 269.2731  90.8099 14.98330591185541
STARLINK-3054           
1 49167U 21082AP  25018.95095711  .00000755  00000+0  71048-4 0  9993
2 49167  69.9984 260.1474 0002741 267.9601  92.1244 14.98329491185054
STARLINK-3101           
1 49168U 21082AQ  25019.04668839  .00000026  00000+0  99358-5 0  9998
2 49168  69.9982 239.9039 0002965 270.5317  89.5502 14.98331810185567
STARLINK-3046           
1 49169U 21082AR  25019.05503544  .00000689  00000+0  65566-4 0  9999
2 49169  69.9989 239.9008 0002774 269.8644  90.2197 14.98331862185570
STARLINK-3107           
1 49171U 21082AT  25019.08030551 -.00000101  00000+0 -63772-6 0  9998
2 49171  69.9983 259.8387 0002840 270.9898  89.0936 14.98329933185030
STARLINK-3091           
1 49172U 21082AU  25018.95488771  .00000411  00000+0  42268-4 0  9992
2 49172  69.9980 240.1407 0003076 267.5700  92.5107 14.98317810184343
